[{"OBJECT_NAME":"GLOBALSTAR M095","OBJECT_ID":"2013-005F","EPOCH":"2026-03-09T18:33:27.234432","MEAN_MOTION":12.62276132,"ECCENTRICITY":0.00013142,"INCLINATION":52.0061,"RA_OF_ASC_NODE":223.8176,"ARG_OF_PERICENTER":95.9758,"MEAN_ANOMALY":264.1259,"EPHEMERIS_TYPE":0,"CLASSIFICATION_TYPE":"U","NORAD_CAT_ID":39077,"ELEMENT_SET_NO":999,"REV_AT_EPOCH":60331,"BSTAR":3.5730155e-5,"MEAN_MOTION_DOT":-9.7e-7,"MEAN_MOTION_DDOT":0},{"OBJECT_NAME":"COSMOS 2091","OBJECT_ID":"1990-070B","EPOCH":"2026-03-09T21:34:57.684864","MEAN_MOTION":12.62557269,"ECCENTRICITY":0.00034338,"INCLINATION":82.5795,"RA_OF_ASC_NODE":31.547,"ARG_OF_PERICENTER":355.4148,"MEAN_ANOMALY":58.2092,"EPHEMERIS_TYPE":0,"CLASSIFICATION_TYPE":"U","NORAD_CAT_ID":20736,"ELEMENT_SET_NO":999,"REV_AT_EPOCH":63978,"BSTAR":0.00010221281,"MEAN_MOTION_DOT":2.9e-7,"MEAN_MOTION_DDOT":0}]
